{
  "type": "FeatureCollection",
  "features": [
    {
      "type": "Feature",
      "properties": {
        "norad_id": 66525,
        "name": "STARLINK-35975",
        "group": "last-30-days",
        "lat": 12.815539578862518,
        "lon": 61.126096392526115,
        "alt_km": 436.49555970124675,
        "timestamp": "2025-12-13T22:39:28.443566+00:00",
        "meta_object_name": "STARLINK-35975",
        "meta_object_id": "2025-265K",
        "meta_epoch": "2025-12-13T06:00:02.000160",
        "meta_mean_motion": 15.45672217,
        "meta_eccentricity": 0.00012543,
        "meta_inclination": 43.0007,
        "meta_ra_of_asc_node": 51.0178,
        "meta_arg_of_pericenter": 281.7556,
        "meta_mean_anomaly": 194.535,
        "meta_ephemeris_type": 0,
        "meta_classification_type": "U",
        "meta_norad_cat_id": 66525,
        "meta_element_set_no": 999,
        "meta_rev_at_epoch": 507,
        "meta_bstar": -0.046732752,
        "meta_mean_motion_dot": -0.02052905,
        "meta_mean_motion_ddot": 0,
        "tle_line1": "1 66525U 25265K   25347.25002315 -.02052905  00000+0 -46733-1 0  9991",
        "tle_line2": "2 66525  43.0007  51.0178 0001254 281.7556 194.5350 15.45672217  5077"
      },
      "geometry": {
        "type": "Point",
        "coordinates": [
          61.126096392526115,
          12.815539578862518
        ]
      }
    },
    {
      "type": "Feature",
      "properties": {
        "norad_id": 66526,
        "name": "STARLINK-35932",
        "group": "last-30-days",
        "lat": 30.071512888829044,
        "lon": 85.3422966991764,
        "alt_km": 410.67696007701124,
        "timestamp": "2025-12-13T22:39:28.443576+00:00",
        "meta_object_name": "STARLINK-35932",
        "meta_object_id": "2025-265L",
        "meta_epoch": "2025-12-13T05:27:07.125120",
        "meta_mean_motion": 15.50726312,
        "meta_eccentricity": 0.00021082,
        "meta_inclination": 43.0002,
        "meta_ra_of_asc_node": 51.1228,
        "meta_arg_of_pericenter": 220.0672,
        "meta_mean_anomaly": 140.0033,
        "meta_ephemeris_type": 0,
        "meta_classification_type": "U",
        "meta_norad_cat_id": 66526,
        "meta_element_set_no": 999,
        "meta_rev_at_epoch": 383,
        "meta_bstar": 0.0022279534,
        "meta_mean_motion_dot": 0.00133312,
        "meta_mean_motion_ddot": 0,
        "tle_line1": "1 66526U 25265L   25347.22716580  .00133312  00000+0  22280-2 0  9995",
        "tle_line2": "2 66526  43.0002  51.1228 0002108 220.0672 140.0033 15.50726312  3832"
      },
      "geometry": {
        "type": "Point",
        "coordinates": [
          85.3422966991764,
          30.071512888829044
        ]
      }
    },
    {
      "type": "Feature",
      "properties": {
        "norad_id": 66527,
        "name": "STARLINK-35935",
        "group": "last-30-days",
        "lat": 30.98419226194412,
        "lon": 87.04384033402525,
        "alt_km": 410.87514753624873,
        "timestamp": "2025-12-13T22:39:28.443587+00:00",
        "meta_object_name": "STARLINK-35935",
        "meta_object_id": "2025-265M",
        "meta_epoch": "2025-12-13T05:26:38.429088",
        "meta_mean_motion": 15.50657298,
        "meta_eccentricity": 0.00026181,
        "meta_inclination": 43,
        "meta_ra_of_asc_node": 51.1205,
        "meta_arg_of_pericenter": 241.691,
        "meta_mean_anomaly": 118.3686,
        "meta_ephemeris_type": 0,
        "meta_classification_type": "U",
        "meta_norad_cat_id": 66527,
        "meta_element_set_no": 999,
        "meta_rev_at_epoch": 383,
        "meta_bstar": 0.0026952189,
        "meta_mean_motion_dot": 0.00161536,
        "meta_mean_motion_ddot": 0,
        "tle_line1": "1 66527U 25265M   25347.22683367  .00161536  00000+0  26952-2 0  9991",
        "tle_line2": "2 66527  43.0000  51.1205 0002618 241.6910 118.3686 15.50657298  3834"
      },
      "geometry": {
        "type": "Point",
        "coordinates": [
          87.04384033402525,
          30.98419226194412
        ]
      }
    },
    {
      "type": "Feature",
      "properties": {
        "norad_id": 66528,
        "name": "STARLINK-35928",
        "group": "last-30-days",
        "lat": 32.00267761100021,
        "lon": 89.03375815599438,
        "alt_km": 410.1593785003897,
        "timestamp": "2025-12-13T22:39:28.443597+00:00",
        "meta_object_name": "STARLINK-35928",
        "meta_object_id": "2025-265N",
        "meta_epoch": "2025-12-13T05:26:07.500480",
        "meta_mean_motion": 15.50677627,
        "meta_eccentricity": 0.00016186,
        "meta_inclination": 43.0003,
        "meta_ra_of_asc_node": 51.1174,
        "meta_arg_of_pericenter": 249.0032,
        "meta_mean_anomaly": 111.0655,
        "meta_ephemeris_type": 0,
        "meta_classification_type": "U",
        "meta_norad_cat_id": 66528,
        "meta_element_set_no": 999,
        "meta_rev_at_epoch": 383,
        "meta_bstar": 0.0019617765,
        "meta_mean_motion_dot": 0.00116891,
        "meta_mean_motion_ddot": 0,
        "tle_line1": "1 66528U 25265N   25347.22647570  .00116891  00000+0  19618-2 0  9993",
        "tle_line2": "2 66528  43.0003  51.1174 0001618 249.0032 111.0655 15.50677627  3833"
      },
      "geometry": {
        "type": "Point",
        "coordinates": [
          89.03375815599438,
          32.00267761100021
        ]
      }
    },
    {
      "type": "Feature",
      "properties": {
        "norad_id": 66529,
        "name": "STARLINK-35933",
        "group": "last-30-days",
        "lat": -11.610358896123687,
        "lon": 34.34666876961218,
        "alt_km": 445.72576629979994,
        "timestamp": "2025-12-13T22:39:28.443607+00:00",
        "meta_object_name": "STARLINK-35933",
        "meta_object_id": "2025-265P",
        "meta_epoch": "2025-12-13T06:00:02.000160",
        "meta_mean_motion": 15.40738784,
        "meta_eccentricity": 0.0001325,
        "meta_inclination": 43.0007,
        "meta_ra_of_asc_node": 51.0838,
        "meta_arg_of_pericenter": 252.8187,
        "meta_mean_anomaly": 196.1113,
        "meta_ephemeris_type": 0,
        "meta_classification_type": "U",
        "meta_norad_cat_id": 66529,
        "meta_element_set_no": 999,
        "meta_rev_at_epoch": 507,
        "meta_bstar": -0.0041295528,
        "meta_mean_motion_dot": -0.00169252,
        "meta_mean_motion_ddot": 0,
        "tle_line1": "1 66529U 25265P   25347.25002315 -.00169252  00000+0 -41296-2 0  9997",
        "tle_line2": "2 66529  43.0007  51.0838 0001325 252.8187 196.1113 15.40738784  5074"
      },
      "geometry": {
        "type": "Point",
        "coordinates": [
          34.34666876961218,
          -11.610358896123687
        ]
      }
    },
    {
      "type": "Feature",
      "properties": {
        "norad_id": 66530,
        "name": "STARLINK-35961",
        "group": "last-30-days",
        "lat": 5.063197596053445,
        "lon": 52.480625649355886,
        "alt_km": 446.04072899229595,
        "timestamp": "2025-12-13T22:39:28.443617+00:00",
        "meta_object_name": "STARLINK-35961",
        "meta_object_id": "2025-265Q",
        "meta_epoch": "2025-12-13T06:00:02.000160",
        "meta_mean_motion": 15.43055059,
        "meta_eccentricity": 0.00010147,
        "meta_inclination": 43.0003,
        "meta_ra_of_asc_node": 51.0286,
        "meta_arg_of_pericenter": 291.121,
        "meta_mean_anomaly": 180.6632,
        "meta_ephemeris_type": 0,
        "meta_classification_type": "U",
        "meta_norad_cat_id": 66530,
        "meta_element_set_no": 999,
        "meta_rev_at_epoch": 507,
        "meta_bstar": -0.057596095,
        "meta_mean_motion_dot": -0.02323287,
        "meta_mean_motion_ddot": 0,
        "tle_line1": "1 66530U 25265Q   25347.25002315 -.02323287  00000+0 -57596-1 0  9990",
        "tle_line2": "2 66530  43.0003  51.0286 0001014 291.1210 180.6632 15.43055059  5071"
      },
      "geometry": {
        "type": "Point",
        "coordinates": [
          52.480625649355886,
          5.063197596053445
        ]
      }
    },
    {
      "type": "Feature",
      "properties": {
        "norad_id": 66531,
        "name": "STARLINK-35960",
        "group": "last-30-days",
        "lat": 20.71278884251434,
        "lon": 70.90545132123277,
        "alt_km": 435.1622439884586,
        "timestamp": "2025-12-13T22:39:28.443631+00:00",
        "meta_object_name": "STARLINK-35960",
        "meta_object_id": "2025-265R",
        "meta_epoch": "2025-12-13T06:00:02.000160",
        "meta_mean_motion": 15.45795099,
        "meta_eccentricity": 0.00011209,
        "meta_inclination": 43.0009,
        "meta_ra_of_asc_node": 50.9881,
        "meta_arg_of_pericenter": 280.848,
        "meta_mean_anomaly": 207.4024,
        "meta_ephemeris_type": 0,
        "meta_classification_type": "U",
        "meta_norad_cat_id": 66531,
        "meta_element_set_no": 999,
        "meta_rev_at_epoch": 507,
        "meta_bstar": -0.046668807,
        "meta_mean_motion_dot": -0.0205812,
        "meta_mean_motion_ddot": 0,
        "tle_line1": "1 66531U 25265R   25347.25002315 -.02058120  00000+0 -46669-1 0  9991",
        "tle_line2": "2 66531  43.0009  50.9881 0001120 280.8480 207.4024 15.45795099  5079"
      },
      "geometry": {
        "type": "Point",
        "coordinates": [
          70.90545132123277,
          20.71278884251434
        ]
      }
    }
  ]
}